ACS3                    
1 59588U 24077B   24137.20456415  .00000147  00000+0  20688-3 0  9997
2 59588  97.4069 212.8118 0020416 178.2433 181.8794 13.67678547  3034
